[{"OBJECT_NAME":"STARLINK-34260","OBJECT_ID":"2025-124T","EPOCH":"2025-09-06T19:05:52.209888","MEAN_MOTION":15.27615498,"ECCENTRICITY":0.00023145,"INCLINATION":43.0039,"RA_OF_ASC_NODE":80.468,"ARG_OF_PERICENTER":276.181,"MEAN_ANOMALY":83.8778,"EPHEMERIS_TYPE":0,"CLASSIFICATION_TYPE":"U","NORAD_CAT_ID":64334,"ELEMENT_SET_NO":999,"REV_AT_EPOCH":1365,"BSTAR":-0.00088622071,"MEAN_MOTION_DOT":-0.00024597,"MEAN_MOTION_DDOT":0},{"OBJECT_NAME":"STARLINK-33855","OBJECT_ID":"2025-124U","EPOCH":"2025-09-06T19:57:29.484000","MEAN_MOTION":15.27623716,"ECCENTRICITY":0.00012196,"INCLINATION":43.0038,"RA_OF_ASC_NODE":79.8698,"ARG_OF_PERICENTER":294.9708,"MEAN_ANOMALY":65.1017,"EPHEMERIS_TYPE":0,"CLASSIFICATION_TYPE":"U","NORAD_CAT_ID":64335,"ELEMENT_SET_NO":999,"REV_AT_EPOCH":1366,"BSTAR":0.0023985726,"MEAN_MOTION_DOT":0.00066426,"MEAN_MOTION_DDOT":0},{"OBJECT_NAME":"STARLINK-34223","OBJECT_ID":"2025-124V","EPOCH":"2025-09-06T18:58:31.969920","MEAN_MOTION":15.40725899,"ECCENTRICITY":0.0001829,"INCLINATION":43.0033,"RA_OF_ASC_NODE":76.966,"ARG_OF_PERICENTER":268.2093,"MEAN_ANOMALY":91.8554,"EPHEMERIS_TYPE":0,"CLASSIFICATION_TYPE":"U","NORAD_CAT_ID":64336,"ELEMENT_SET_NO":999,"REV_AT_EPOCH":1369,"BSTAR":0.0022214758,"MEAN_MOTION_DOT":0.00093722,"MEAN_MOTION_DDOT":0},{"OBJECT_NAME":"STARLINK-34216","OBJECT_ID":"2025-124W","EPOCH":"2025-09-06T19:37:08.289120","MEAN_MOTION":15.27622516,"ECCENTRICITY":0.00012538,"INCLINATION":43.0007,"RA_OF_ASC_NODE":79.7638,"ARG_OF_PERICENTER":254.4962,"MEAN_ANOMALY":105.5751,"EPHEMERIS_TYPE":0,"CLASSIFICATION_TYPE":"U","NORAD_CAT_ID":64337,"ELEMENT_SET_NO":999,"REV_AT_EPOCH":1366,"BSTAR":0.0014679781,"MEAN_MOTION_DOT":0.00040408,"MEAN_MOTION_DDOT":0},{"OBJECT_NAME":"STARLINK-34218","OBJECT_ID":"2025-124X","EPOCH":"2025-09-06T05:33:50.839488","MEAN_MOTION":15.40712978,"ECCENTRICITY":0.00010318,"INCLINATION":42.9998,"RA_OF_ASC_NODE":80.5188,"ARG_OF_PERICENTER":276.449,"MEAN_ANOMALY":83.6249,"EPHEMERIS_TYPE":0,"CLASSIFICATION_TYPE":"U","NORAD_CAT_ID":64338,"ELEMENT_SET_NO":999,"REV_AT_EPOCH":1360,"BSTAR":0.0014463116,"MEAN_MOTION_DOT":0.0006062,"MEAN_MOTION_DDOT":0},{"OBJECT_NAME":"STARLINK-34017","OBJECT_ID":"2025-124Y","EPOCH":"2025-09-06T12:23:22.039584","MEAN_MOTION":15.27616064,"ECCENTRICITY":5.071e-5,"INCLINATION":42.9973,"RA_OF_ASC_NODE":81.8059,"ARG_OF_PERICENTER":272.4112,"MEAN_ANOMALY":87.6681,"EPHEMERIS_TYPE":0,"CLASSIFICATION_TYPE":"U","NORAD_CAT_ID":64339,"ELEMENT_SET_NO":999,"REV_AT_EPOCH":1361,"BSTAR":0.0011559261,"MEAN_MOTION_DOT":0.00031718,"MEAN_MOTION_DDOT":0},{"OBJECT_NAME":"STARLINK-33977","OBJECT_ID":"2025-126A","EPOCH":"2025-09-06T23:12:10.854720","MEAN_MOTION":14.98381023,"ECCENTRICITY":0.0003236,"INCLINATION":70.0016,"RA_OF_ASC_NODE":137.6278,"ARG_OF_PERICENTER":269.5447,"MEAN_ANOMALY":90.5341,"EPHEMERIS_TYPE":0,"CLASSIFICATION_TYPE":"U","NORAD_CAT_ID":64344,"ELEMENT_SET_NO":999,"REV_AT_EPOCH":1437,"BSTAR":0.0011018933,"MEAN_MOTION_DOT":0.00013097,"MEAN_MOTION_DDOT":0},{"OBJECT_NAME":"STARLINK-34426","OBJECT_ID":"2025-126B","EPOCH":"2025-09-06T23:05:57.318144","MEAN_MOTION":14.98345433,"ECCENTRICITY":0.00028497,"INCLINATION":70.002,"RA_OF_ASC_NODE":137.6078,"ARG_OF_PERICENTER":272.5307,"MEAN_ANOMALY":87.5526,"EPHEMERIS_TYPE":0,"CLASSIFICATION_TYPE":"U","NORAD_CAT_ID":64345,"ELEMENT_SET_NO":999,"REV_AT_EPOCH":1316,"BSTAR":0.00078000878,"MEAN_MOTION_DOT":9.23e-5,"MEAN_MOTION_DDOT":0},{"OBJECT_NAME":"STARLINK-34437","OBJECT_ID":"2025-126C","EPOCH":"2025-09-06T22:11:52.465920","MEAN_MOTION":14.98367032,"ECCENTRICITY":0.00028298,"INCLINATION":70.0022,"RA_OF_ASC_NODE":137.8804,"ARG_OF_PERICENTER":270.3748,"MEAN_ANOMALY":89.7087,"EPHEMERIS_TYPE":0,"CLASSIFICATION_TYPE":"U","NORAD_CAT_ID":64346,"ELEMENT_SET_NO":999,"REV_AT_EPOCH":1315,"BSTAR":0.0010599305,"MEAN_MOTION_DOT":0.00012589,"MEAN_MOTION_DDOT":0},{"OBJECT_NAME":"STARLINK-34407","OBJECT_ID":"2025-126D","EPOCH":"2025-09-06T22:18:07.285536","MEAN_MOTION":14.98368947,"ECCENTRICITY":0.00027376,"INCLINATION":70.0017,"RA_OF_ASC_NODE":137.8907,"ARG_OF_PERICENTER":267.3603,"MEAN_ANOMALY":92.7243,"EPHEMERIS_TYPE":0,"CLASSIFICATION_TYPE":"U","NORAD_CAT_ID":64347,"ELEMENT_SET_NO":999,"REV_AT_EPOCH":1315,"BSTAR":0.0011203258,"MEAN_MOTION_DOT":0.00013313,"MEAN_MOTION_DDOT":0},{"OBJECT_NAME":"STARLINK-34274","OBJECT_ID":"2025-126E","EPOCH":"2025-09-06T22:35:56.157216","MEAN_MOTION":14.98334791,"ECCENTRICITY":0.00031002,"INCLINATION":70.0019,"RA_OF_ASC_NODE":137.9398,"ARG_OF_PERICENTER":265.7903,"MEAN_ANOMALY":94.2902,"EPHEMERIS_TYPE":0,"CLASSIFICATION_TYPE":"U","NORAD_CAT_ID":64348,"ELEMENT_SET_NO":999,"REV_AT_EPOCH":1315,"BSTAR":0.00089315191,"MEAN_MOTION_DOT":0.00010581,"MEAN_MOTION_DDOT":0},{"OBJECT_NAME":"STARLINK-34301","OBJECT_ID":"2025-126F","EPOCH":"2025-09-06T21:35:49.573248","MEAN_MOTION":14.983439,"ECCENTRICITY":0.00029512,"INCLINATION":70.0021,"RA_OF_ASC_NODE":137.7915,"ARG_OF_PERICENTER":268.0499,"MEAN_ANOMALY":92.0322,"EPHEMERIS_TYPE":0,"CLASSIFICATION_TYPE":"U","NORAD_CAT_ID":64349,"ELEMENT_SET_NO":999,"REV_AT_EPOCH":1315,"BSTAR":0.00066023178,"MEAN_MOTION_DOT":7.796e-5,"MEAN_MOTION_DDOT":0},{"OBJECT_NAME":"STARLINK-34425","OBJECT_ID":"2025-126G","EPOCH":"2025-09-06T22:05:51.780480","MEAN_MOTION":14.98372721,"ECCENTRICITY":0.00028801,"INCLINATION":70.0017,"RA_OF_ASC_NODE":137.8621,"ARG_OF_PERICENTER":265.8054,"MEAN_ANOMALY":94.2776,"EPHEMERIS_TYPE":0,"CLASSIFICATION_TYPE":"U","NORAD_CAT_ID":64350,"ELEMENT_SET_NO":999,"REV_AT_EPOCH":1315,"BSTAR":0.001329036,"MEAN_MOTION_DOT":0.00015818,"MEAN_MOTION_DDOT":0},{"OBJECT_NAME":"STARLINK-34389","OBJECT_ID":"2025-126H","EPOCH":"2025-09-06T21:48:05.432544","MEAN_MOTION":14.98350823,"ECCENTRICITY":0.00031892,"INCLINATION":70.0017,"RA_OF_ASC_NODE":137.8157,"ARG_OF_PERICENTER":266.217,"MEAN_ANOMALY":93.8624,"EPHEMERIS_TYPE":0,"CLASSIFICATION_TYPE":"U","NORAD_CAT_ID":64351,"ELEMENT_SET_NO":999,"REV_AT_EPOCH":1315,"BSTAR":0.00082207171,"MEAN_MOTION_DOT":9.735e-5,"MEAN_MOTION_DDOT":0},{"OBJECT_NAME":"STARLINK-34385","OBJECT_ID":"2025-126J","EPOCH":"2025-09-06T22:23:53.739168","MEAN_MOTION":14.98367722,"ECCENTRICITY":0.00031478,"INCLINATION":70.0014,"RA_OF_ASC_NODE":137.9076,"ARG_OF_PERICENTER":272.1722,"MEAN_ANOMALY":87.9077,"EPHEMERIS_TYPE":0,"CLASSIFICATION_TYPE":"U","NORAD_CAT_ID":64352,"ELEMENT_SET_NO":999,"REV_AT_EPOCH":1315,"BSTAR":0.0010490149,"MEAN_MOTION_DOT":0.00012458,"MEAN_MOTION_DDOT":0},{"OBJECT_NAME":"STARLINK-34431","OBJECT_ID":"2025-126K","EPOCH":"2025-09-06T23:06:12.854592","MEAN_MOTION":14.98322576,"ECCENTRICITY":0.00028931,"INCLINATION":70.002,"RA_OF_ASC_NODE":137.6125,"ARG_OF_PERICENTER":267.316,"MEAN_ANOMALY":92.7668,"EPHEMERIS_TYPE":0,"CLASSIFICATION_TYPE":"U","NORAD_CAT_ID":64353,"ELEMENT_SET_NO":999,"REV_AT_EPOCH":1316,"BSTAR":0.00072546231,"MEAN_MOTION_DOT":8.572e-5,"MEAN_MOTION_DDOT":0}]
