STARLINK-34260          
1 64334U 25124T   25249.79574317 -.00024597  00000+0 -88622-3 0  9996
2 64334  43.0039  80.4680 0002314 276.1810  83.8778 15.27615498 13656
STARLINK-33855          
1 64335U 25124U   25249.83159125  .00066426  00000+0  23986-2 0  9994
2 64335  43.0038  79.8698 0001219 294.9708  65.1017 15.27623716 13666
STARLINK-34223          
1 64336U 25124V   25249.79064780  .00093722  00000+0  22215-2 0  9995
2 64336  43.0033  76.9660 0001829 268.2093  91.8554 15.40725899 13692
STARLINK-34216          
1 64337U 25124W   25249.81745705  .00040408  00000+0  14680-2 0  9992
2 64337  43.0007  79.7638 0001253 254.4962 105.5751 15.27622516 13669
STARLINK-34218          
1 64338U 25124X   25249.23183842  .00060620  00000+0  14463-2 0  9994
2 64338  42.9998  80.5188 0001031 276.4490  83.6249 15.40712978 13600
STARLINK-34017          
1 64339U 25124Y   25249.51622731  .00031718  00000+0  11559-2 0  9990
2 64339  42.9973  81.8059 0000507 272.4112  87.6681 15.27616064 13618
STARLINK-33977          
1 64344U 25126A   25249.96679230  .00013097  00000+0  11019-2 0  9994
2 64344  70.0016 137.6278 0003236 269.5447  90.5341 14.98381023 14378
STARLINK-34426          
1 64345U 25126B   25249.96246896  .00009230  00000+0  78001-3 0  9992
2 64345  70.0020 137.6078 0002849 272.5307  87.5526 14.98345433 13162
STARLINK-34437          
1 64346U 25126C   25249.92491280  .00012589  00000+0  10599-2 0  9996
2 64346  70.0022 137.8804 0002829 270.3748  89.7087 14.98367032 13151
STARLINK-34407          
1 64347U 25126D   25249.92925099  .00013313  00000+0  11203-2 0  9996
2 64347  70.0017 137.8907 0002737 267.3603  92.7243 14.98368947 13158
STARLINK-34274          
1 64348U 25126E   25249.94162219  .00010581  00000+0  89315-3 0  9990
2 64348  70.0019 137.9398 0003100 265.7903  94.2902 14.98334791 13155
STARLINK-34301          
1 64349U 25126F   25249.89987932  .00007796  00000+0  66023-3 0  9997
2 64349  70.0021 137.7915 0002951 268.0499  92.0322 14.98343900 13155
STARLINK-34425          
1 64350U 25126G   25249.92073820  .00015818  00000+0  13290-2 0  9996
2 64350  70.0017 137.8621 0002880 265.8054  94.2776 14.98372721 13150
STARLINK-34389          
1 64351U 25126H   25249.90839621  .00009735  00000+0  82207-3 0  9990
2 64351  70.0017 137.8157 0003189 266.2170  93.8624 14.98350823 13158
STARLINK-34385          
1 64352U 25126J   25249.93326087  .00012458  00000+0  10490-2 0  9991
2 64352  70.0014 137.9076 0003147 272.1722  87.9077 14.98367722 13152
STARLINK-34431          
1 64353U 25126K   25249.96264878  .00008572  00000+0  72546-3 0  9997
2 64353  70.0020 137.6125 0002893 267.3160  92.7668 14.98322576 13160
